[
    {
        "Altitude(m)": 554142.8335568421,
        "Argument of Periapsis(deg)": 0.019868973332140504,
        "Eccentricity": 0.0,
        "Inclination(deg)": 53.0,
        "Latitude(deg)": 23.373298849726282,
        "Longitude(deg)": -101.27887360305999,
        "Mean Anomaly(deg)": 150.2748786027327,
        "RAAN(deg)": 199.97043010558403,
        "Satellite Name": "Starlink Shell 1 887",
        "Satellite Number": 887,
        "Semi-Major Axis(m)": 6931778.249405717,
        "Time(s)": 570
    },
    {
        "Altitude(m)": 554090.9172584288,
        "Argument of Periapsis(deg)": 0.02021755181165174,
        "Eccentricity": 0.0,
        "Inclination(deg)": 53.0,
        "Latitude(deg)": 22.89642983006372,
        "Longitude(deg)": -100.87506167893227,
        "Mean Anomaly(deg)": 150.90170980628952,
        "RAAN(deg)": 199.9699113355066,
        "Satellite Name": "Starlink Shell 1 887",
        "Satellite Number": 887,
        "Semi-Major Axis(m)": 6931778.249405717,
        "Time(s)": 580
    },
    {
        "Altitude(m)": 554040.8244418832,
        "Argument of Periapsis(deg)": 0.020566130291162974,
        "Eccentricity": 0.0,
        "Inclination(deg)": 53.0,
        "Latitude(deg)": 22.418295975893,
        "Longitude(deg)": -100.47435261346848,
        "Mean Anomaly(deg)": 151.52854100984624,
        "RAAN(deg)": 199.96939256542908,
        "Satellite Name": "Starlink Shell 1 887",
        "Satellite Number": 887,
        "Semi-Major Axis(m)": 6931778.249405717,
        "Time(s)": 590
    },
    {
        "Altitude(m)": 553992.6000588915,
        "Argument of Periapsis(deg)": 0.020914708770674213,
        "Eccentricity": 0.0,
        "Inclination(deg)": 53.0,
        "Latitude(deg)": 21.9389346934773,
        "Longitude(deg)": -100.07666153380816,
        "Mean Anomaly(deg)": 152.1553722134029,
        "RAAN(deg)": 199.96887379535164,
        "Satellite Name": "Starlink Shell 1 887",
        "Satellite Number": 887,
        "Semi-Major Axis(m)": 6931778.249405717,
        "Time(s)": 600
    },
    {
        "Altitude(m)": 553946.2882876836,
        "Argument of Periapsis(deg)": 0.021263287250185448,
        "Eccentricity": 0.0,
        "Inclination(deg)": 53.0,
        "Latitude(deg)": 21.45838267515307,
        "Longitude(deg)": -99.6819047389116,
        "Mean Anomaly(deg)": 152.7822034169596,
        "RAAN(deg)": 199.96835502527415,
        "Satellite Name": "Starlink Shell 1 887",
        "Satellite Number": 887,
        "Semi-Major Axis(m)": 6931778.249405717,
        "Time(s)": 610
    },
    {
        "Altitude(m)": 553901.9325087847,
        "Argument of Periapsis(deg)": 0.021611865729696686,
        "Eccentricity": 0.0,
        "Inclination(deg)": 53.0,
        "Latitude(deg)": 20.976675922867216,
        "Longitude(deg)": -99.28999917355571,
        "Mean Anomaly(deg)": 153.4090346205163,
        "RAAN(deg)": 199.9678362551967,
        "Satellite Name": "Starlink Shell 1 887",
        "Satellite Number": 887,
        "Semi-Major Axis(m)": 6931778.249405717,
        "Time(s)": 620
    },
    {
        "Altitude(m)": 553859.5752811221,
        "Argument of Periapsis(deg)": 0.02196044420920792,
        "Eccentricity": 0.0,
        "Inclination(deg)": 53.0,
        "Latitude(deg)": 20.493849771202857,
        "Longitude(deg)": -98.90086358248736,
        "Mean Anomaly(deg)": 154.0358658240731,
        "RAAN(deg)": 199.96731748511922,
        "Satellite Name": "Starlink Shell 1 887",
        "Satellite Number": 887,
        "Semi-Major Axis(m)": 6931778.249405717,
        "Time(s)": 630
    },
    {
        "Altitude(m)": 553819.2583185271,
        "Argument of Periapsis(deg)": 0.02230902268871916,
        "Eccentricity": 0.0,
        "Inclination(deg)": 53.0,
        "Latitude(deg)": 20.00993890989941,
        "Longitude(deg)": -98.51441714240379,
        "Mean Anomaly(deg)": 154.66269702762978,
        "RAAN(deg)": 199.96679871504173,
        "Satellite Name": "Starlink Shell 1 887",
        "Satellite Number": 887,
        "Semi-Major Axis(m)": 6931778.249405717,
        "Time(s)": 640
    },
    {
        "Altitude(m)": 553781.0224666147,
        "Argument of Periapsis(deg)": 0.022657601168230398,
        "Eccentricity": 0.0,
        "Inclination(deg)": 53.0,
        "Latitude(deg)": 19.524977405877166,
        "Longitude(deg)": -98.13058061475338,
        "Mean Anomaly(deg)": 155.28952823118652,
        "RAAN(deg)": 199.96627994496427,
        "Satellite Name": "Starlink Shell 1 887",
        "Satellite Number": 887,
        "Semi-Major Axis(m)": 6931778.249405717,
        "Time(s)": 650
    },
    {
        "Altitude(m)": 553744.9076800706,
        "Argument of Periapsis(deg)": 0.023006179647741636,
        "Eccentricity": 0.0,
        "Inclination(deg)": 53.0,
        "Latitude(deg)": 19.038998724773485,
        "Longitude(deg)": -97.74927581701131,
        "Mean Anomaly(deg)": 155.91635943474319,
        "RAAN(deg)": 199.9657611748868,
        "Satellite Name": "Starlink Shell 1 887",
        "Satellite Number": 887,
        "Semi-Major Axis(m)": 6931778.249405717,
        "Time(s)": 660
    },
    {
        "Altitude(m)": 553710.9530003325,
        "Argument of Periapsis(deg)": 0.023354758127252868,
        "Eccentricity": 0.0,
        "Inclination(deg)": 53.0,
        "Latitude(deg)": 18.552035752000492,
        "Longitude(deg)": -97.37042509347043,
        "Mean Anomaly(deg)": 156.54319063829993,
        "RAAN(deg)": 199.96524240480932,
        "Satellite Name": "Starlink Shell 1 887",
        "Satellite Number": 887,
        "Semi-Major Axis(m)": 6931778.249405717,
        "Time(s)": 670
    },
    {
        "Altitude(m)": 553679.1965337526,
        "Argument of Periapsis(deg)": 0.023703336606764106,
        "Eccentricity": 0.0,
        "Inclination(deg)": 53.0,
        "Latitude(deg)": 18.06412081333546,
        "Longitude(deg)": -96.99395229848642,
        "Mean Anomaly(deg)": 157.17002184185665,
        "RAAN(deg)": 199.96472363473188,
        "Satellite Name": "Starlink Shell 1 887",
        "Satellite Number": 887,
        "Semi-Major Axis(m)": 6931778.249405717,
        "Time(s)": 680
    },
    {
        "Altitude(m)": 553649.6754301228,
        "Argument of Periapsis(deg)": 0.024051915086275345,
        "Eccentricity": 0.0,
        "Inclination(deg)": 53.0,
        "Latitude(deg)": 17.57528569505225,
        "Longitude(deg)": -96.61978226649136,
        "Mean Anomaly(deg)": 157.79685304541337,
        "RAAN(deg)": 199.96420486465436,
        "Satellite Name": "Starlink Shell 1 887",
        "Satellite Number": 887,
        "Semi-Major Axis(m)": 6931778.249405717,
        "Time(s)": 690
    },
    {
        "Altitude(m)": 553622.4258617281,
        "Argument of Periapsis(deg)": 0.024400493565786583,
        "Eccentricity": 0.0,
        "Inclination(deg)": 53.0,
        "Latitude(deg)": 17.08556166360652,
        "Longitude(deg)": -96.24784028170369,
        "Mean Anomaly(deg)": 158.42368424897006,
        "RAAN(deg)": 199.96368609457687,
        "Satellite Name": "Starlink Shell 1 887",
        "Satellite Number": 887,
        "Semi-Major Axis(m)": 6931778.249405717,
        "Time(s)": 700
    },
    {
        "Altitude(m)": 553597.483002801,
        "Argument of Periapsis(deg)": 0.024749072045297815,
        "Eccentricity": 0.0,
        "Inclination(deg)": 53.0,
        "Latitude(deg)": 16.594979484885574,
        "Longitude(deg)": -95.87805306045611,
        "Mean Anomaly(deg)": 159.05051545252678,
        "RAAN(deg)": 199.9631673244994,
        "Satellite Name": "Starlink Shell 1 887",
        "Satellite Number": 887,
        "Semi-Major Axis(m)": 6931778.249405717,
        "Time(s)": 710
    },
    {
        "Altitude(m)": 553574.881009489,
        "Argument of Periapsis(deg)": 0.025097650524809053,
        "Eccentricity": 0.0,
        "Inclination(deg)": 53.0,
        "Latitude(deg)": 16.103569443033923,
        "Longitude(deg)": -95.510348220442,
        "Mean Anomaly(deg)": 159.67734665608344,
        "RAAN(deg)": 199.96264855442197,
        "Satellite Name": "Starlink Shell 1 887",
        "Satellite Number": 887,
        "Semi-Major Axis(m)": 6931778.249405717,
        "Time(s)": 720
    },
    {
        "Altitude(m)": 553554.653000285,
        "Argument of Periapsis(deg)": 0.02544622900432029,
        "Eccentricity": 0.0,
        "Inclination(deg)": 53.0,
        "Latitude(deg)": 15.611361358866105,
        "Longitude(deg)": -95.14465374979311,
        "Mean Anomaly(deg)": -199.6958221403598,
        "RAAN(deg)": 199.96212978434448,
        "Satellite Name": "Starlink Shell 1 887",
        "Satellite Number": 887,
        "Semi-Major Axis(m)": 6931778.249405717,
        "Time(s)": 730
    },
    {
        "Altitude(m)": 553536.83103697,
        "Argument of Periapsis(deg)": 0.02579480748383153,
        "Eccentricity": 0.0,
        "Inclination(deg)": 53.0,
        "Latitude(deg)": 15.118384607881334,
        "Longitude(deg)": -94.78089898889917,
        "Mean Anomaly(deg)": -199.06899093680306,
        "RAAN(deg)": 199.96161101426702,
        "Satellite Name": "Starlink Shell 1 887",
        "Satellite Number": 887,
        "Semi-Major Axis(m)": 6931778.249405717,
        "Time(s)": 740
    },
    {
        "Altitude(m)": 553521.4461060433,
        "Argument of Periapsis(deg)": 0.026143385963342765,
        "Eccentricity": 0.0,
        "Inclination(deg)": 53.0,
        "Latitude(deg)": 14.624668137888143,
        "Longitude(deg)": -94.41901409925592,
        "Mean Anomaly(deg)": -198.44215973324634,
        "RAAN(deg)": 199.96109224418956,
        "Satellite Name": "Starlink Shell 1 887",
        "Satellite Number": 887,
        "Semi-Major Axis(m)": 6931778.249405717,
        "Time(s)": 750
    }
]